[
    {
        "Altitude(m)": 612502.2192654877,
        "Argument of Periapsis(deg)": 0.0,
        "Eccentricity": 0.0,
        "Inclination(deg)": 60.0,
        "Latitude(deg)": -28.136052925943275,
        "Longitude(deg)": 7.148303567120233,
        "Mean Anomaly(deg)": -32.72730000000001,
        "RAAN(deg)": 125.00000000000001,
        "Satellite Name": "Test1 570",
        "Satellite Number": 570,
        "Semi-Major Axis(m)": 6980739.136638005,
        "Time(s)": 0
    },
    {
        "Altitude(m)": 612308.6666614434,
        "Argument of Periapsis(deg)": 0.00010418945913296404,
        "Eccentricity": 0.0,
        "Inclination(deg)": 60.0,
        "Latitude(deg)": -27.623107605487064,
        "Longitude(deg)": 7.501776809504247,
        "Mean Anomaly(deg)": -32.10719385453816,
        "RAAN(deg)": 124.99957995086027,
        "Satellite Name": "Test1 570",
        "Satellite Number": 570,
        "Semi-Major Axis(m)": 6980739.136638005,
        "Time(s)": 10
    },
    {
        "Altitude(m)": 612116.0829606586,
        "Argument of Periapsis(deg)": 0.0002083789182659281,
        "Eccentricity": 0.0,
        "Inclination(deg)": 60.0,
        "Latitude(deg)": -27.10899342693044,
        "Longitude(deg)": 7.851598887349122,
        "Mean Anomaly(deg)": -31.48708770907633,
        "RAAN(deg)": 124.99915990172053,
        "Satellite Name": "Test1 570",
        "Satellite Number": 570,
        "Semi-Major Axis(m)": 6980739.136638005,
        "Time(s)": 20
    },
    {
        "Altitude(m)": 611924.5377499466,
        "Argument of Periapsis(deg)": 0.00031256837739889213,
        "Eccentricity": 0.0,
        "Inclination(deg)": 60.0,
        "Latitude(deg)": -26.59374470561905,
        "Longitude(deg)": 8.197874217396498,
        "Mean Anomaly(deg)": -30.86698156361448,
        "RAAN(deg)": 124.99873985258078,
        "Satellite Name": "Test1 570",
        "Satellite Number": 570,
        "Semi-Major Axis(m)": 6980739.136638005,
        "Time(s)": 30
    },
    {
        "Altitude(m)": 611734.1000095053,
        "Argument of Periapsis(deg)": 0.0004167578365318562,
        "Eccentricity": 0.0,
        "Inclination(deg)": 60.0,
        "Latitude(deg)": -26.07739490755267,
        "Longitude(deg)": 8.540705498775532,
        "Mean Anomaly(deg)": -30.2468754181527,
        "RAAN(deg)": 124.99831980344105,
        "Satellite Name": "Test1 570",
        "Satellite Number": 570,
        "Semi-Major Axis(m)": 6980739.136638005,
        "Time(s)": 40
    },
    {
        "Altitude(m)": 611544.8380824184,
        "Argument of Periapsis(deg)": 0.0005209472956648203,
        "Eccentricity": 0.0,
        "Inclination(deg)": 60.0,
        "Latitude(deg)": -25.559976681789006,
        "Longitude(deg)": 8.880192768262956,
        "Mean Anomaly(deg)": -29.62676927269085,
        "RAAN(deg)": 124.99789975430129,
        "Satellite Name": "Test1 570",
        "Satellite Number": 570,
        "Semi-Major Axis(m)": 6980739.136638005,
        "Time(s)": 50
    },
    {
        "Altitude(m)": 611356.8196444125,
        "Argument of Periapsis(deg)": 0.0006251367547977843,
        "Eccentricity": 0.0,
        "Inclination(deg)": 60.0,
        "Latitude(deg)": -25.041521891741688,
        "Longitude(deg)": 9.216433967663152,
        "Mean Anomaly(deg)": -29.006663127229068,
        "RAAN(deg)": 124.99747970516155,
        "Satellite Name": "Test1 570",
        "Satellite Number": 570,
        "Semi-Major Axis(m)": 6980739.136638005,
        "Time(s)": 60
    },
    {
        "Altitude(m)": 611170.1116739421,
        "Argument of Periapsis(deg)": 0.0007293262139307483,
        "Eccentricity": 0.0,
        "Inclination(deg)": 60.0,
        "Latitude(deg)": -24.522061645411213,
        "Longitude(deg)": 9.549525510375325,
        "Mean Anomaly(deg)": -28.38655698176722,
        "RAAN(deg)": 124.9970596560218,
        "Satellite Name": "Test1 570",
        "Satellite Number": 570,
        "Semi-Major Axis(m)": 6980739.136638005,
        "Time(s)": 70
    },
    {
        "Altitude(m)": 610984.7804225711,
        "Argument of Periapsis(deg)": 0.0008335156730637124,
        "Eccentricity": 0.0,
        "Inclination(deg)": 60.0,
        "Latitude(deg)": -24.001626324591037,
        "Longitude(deg)": 9.879561334223384,
        "Mean Anomaly(deg)": -27.76645083630539,
        "RAAN(deg)": 124.99663960688207,
        "Satellite Name": "Test1 570",
        "Satellite Number": 570,
        "Semi-Major Axis(m)": 6980739.136638005,
        "Time(s)": 80
    },
    {
        "Altitude(m)": 610800.8913856792,
        "Argument of Periapsis(deg)": 0.0009377051321966765,
        "Eccentricity": 0.0,
        "Inclination(deg)": 60.0,
        "Latitude(deg)": -23.48024561307834,
        "Longitude(deg)": 10.206633466253525,
        "Mean Anomaly(deg)": -27.146344690843538,
        "RAAN(deg)": 124.99621955774232,
        "Satellite Name": "Test1 570",
        "Satellite Number": 570,
        "Semi-Major Axis(m)": 6980739.136638005,
        "Time(s)": 90
    },
    {
        "Altitude(m)": 610618.5092735367,
        "Argument of Periapsis(deg)": 0.0010418945913296407,
        "Eccentricity": 0.0,
        "Inclination(deg)": 60.0,
        "Latitude(deg)": -22.957948523929556,
        "Longitude(deg)": 10.530832586594142,
        "Mean Anomaly(deg)": -26.52623854538171,
        "RAAN(deg)": 124.99579950860259,
        "Satellite Name": "Test1 570",
        "Satellite Number": 570,
        "Semi-Major Axis(m)": 6980739.136638005,
        "Time(s)": 100
    },
    {
        "Altitude(m)": 610437.6979827302,
        "Argument of Periapsis(deg)": 0.0011460840504626045,
        "Eccentricity": 0.0,
        "Inclination(deg)": 60.0,
        "Latitude(deg)": -22.4347634257977,
        "Longitude(deg)": 10.852247078477081,
        "Mean Anomaly(deg)": -25.906132399919855,
        "RAAN(deg)": 124.99537945946284,
        "Satellite Name": "Test1 570",
        "Satellite Number": 570,
        "Semi-Major Axis(m)": 6980739.136638005,
        "Time(s)": 110
    },
    {
        "Altitude(m)": 610258.5205679481,
        "Argument of Periapsis(deg)": 0.0012502735095955685,
        "Eccentricity": 0.0,
        "Inclination(deg)": 60.0,
        "Latitude(deg)": -21.910718068381275,
        "Longitude(deg)": 11.17096359014911,
        "Mean Anomaly(deg)": -25.28602625445803,
        "RAAN(deg)": 124.9949594103231,
        "Satellite Name": "Test1 570",
        "Satellite Number": 570,
        "Semi-Major Axis(m)": 6980739.136638005,
        "Time(s)": 120
    },
    {
        "Altitude(m)": 610081.039214173,
        "Argument of Periapsis(deg)": 0.0013544629687285324,
        "Eccentricity": 0.0,
        "Inclination(deg)": 60.0,
        "Latitude(deg)": -21.385839607020433,
        "Longitude(deg)": 11.487067595785845,
        "Mean Anomaly(deg)": -24.665920108996175,
        "RAAN(deg)": 124.99453936118336,
        "Satellite Name": "Test1 570",
        "Satellite Number": 570,
        "Semi-Major Axis(m)": 6980739.136638005,
        "Time(s)": 130
    },
    {
        "Altitude(m)": 609905.3152092689,
        "Argument of Periapsis(deg)": 0.0014586524278614966,
        "Eccentricity": 0.0,
        "Inclination(deg)": 60.0,
        "Latitude(deg)": -20.86015462647662,
        "Longitude(deg)": 11.800642442527321,
        "Mean Anomaly(deg)": -24.04581396353435,
        "RAAN(deg)": 124.99411931204362,
        "Satellite Name": "Test1 570",
        "Satellite Number": 570,
        "Semi-Major Axis(m)": 6980739.136638005,
        "Time(s)": 140
    },
    {
        "Altitude(m)": 609731.4089169966,
        "Argument of Periapsis(deg)": 0.0015628418869944607,
        "Eccentricity": 0.0,
        "Inclination(deg)": 60.0,
        "Latitude(deg)": -20.333689163921715,
        "Longitude(deg)": 12.111769909378255,
        "Mean Anomaly(deg)": -23.4257078180726,
        "RAAN(deg)": 124.99369926290387,
        "Satellite Name": "Test1 570",
        "Satellite Number": 570,
        "Semi-Major Axis(m)": 6980739.136638005,
        "Time(s)": 150
    },
    {
        "Altitude(m)": 609559.379750437,
        "Argument of Periapsis(deg)": 0.0016670313461274247,
        "Eccentricity": 0.0,
        "Inclination(deg)": 60.0,
        "Latitude(deg)": -19.806468731170412,
        "Longitude(deg)": 12.420530765100994,
        "Mean Anomaly(deg)": -22.805601672610667,
        "RAAN(deg)": 124.99327921376414,
        "Satellite Name": "Test1 570",
        "Satellite Number": 570,
        "Semi-Major Axis(m)": 6980739.136638005,
        "Time(s)": 160
    },
    {
        "Altitude(m)": 609389.2861458973,
        "Argument of Periapsis(deg)": 0.0017712208052603888,
        "Eccentricity": 0.0,
        "Inclination(deg)": 60.0,
        "Latitude(deg)": -19.278518336190384,
        "Longitude(deg)": 12.727003812231343,
        "Mean Anomaly(deg)": -22.185495527148916,
        "RAAN(deg)": 124.99285916462439,
        "Satellite Name": "Test1 570",
        "Satellite Number": 570,
        "Semi-Major Axis(m)": 6980739.136638005,
        "Time(s)": 170
    },
    {
        "Altitude(m)": 609221.1855372294,
        "Argument of Periapsis(deg)": 0.001875410264393353,
        "Eccentricity": 0.0,
        "Inclination(deg)": 60.0,
        "Latitude(deg)": -18.749862503911153,
        "Longitude(deg)": 13.031266442974246,
        "Mean Anomaly(deg)": -21.565389381687087,
        "RAAN(deg)": 124.99243911548466,
        "Satellite Name": "Test1 570",
        "Satellite Number": 570,
        "Semi-Major Axis(m)": 6980739.136638005,
        "Time(s)": 180
    },
    {
        "Altitude(m)": 609055.1343306579,
        "Argument of Periapsis(deg)": 0.0019795997235263173,
        "Eccentricity": 0.0,
        "Inclination(deg)": 60.0,
        "Latitude(deg)": -18.22052529636682,
        "Longitude(deg)": 13.333395194114729,
        "Mean Anomaly(deg)": -20.945283236225237,
        "RAAN(deg)": 124.99201906634491,
        "Satellite Name": "Test1 570",
        "Satellite Number": 570,
        "Semi-Major Axis(m)": 6980739.136638005,
        "Time(s)": 190
    }
]